FENGYUN 1C DEB          
1 35234U 99025DQS 17345.35271240  .00000459  00000-0  12625-3 0  9993
2 35234  98.3974  34.7037 0139396 243.9377 114.7410 14.46332463519581
